CCSDS_OMM_VERS = 2.0
CREATION_DATE  = 
ORIGINATOR     = 

OBJECT_NAME    = SL-16 R/B
OBJECT_ID      = 1998-045B
CENTER_NAME    = EARTH
REF_FRAME      = TEME
TIME_SYSTEM    = UTC
MEAN_ELEMENT_THEORY = SGP/SGP4

EPOCH          = 2026-04-04T06:48:19.169280
MEAN_MOTION    = 14.16193545
ECCENTRICITY   = .00082263
INCLINATION    = 71.0090
RA_OF_ASC_NODE = 127.7530
ARG_OF_PERICENTER = 330.5545
MEAN_ANOMALY   = 29.5114

EPHEMERIS_TYPE = 0
CLASSIFICATION_TYPE = U
NORAD_CAT_ID   = 25407
ELEMENT_SET_NO = 999
REV_AT_EPOCH   = 43072
BSTAR          = .65946099E-4
MEAN_MOTION_DOT = .83E-6
MEAN_MOTION_DDOT = 0

CCSDS_OMM_VERS = 2.0
CREATION_DATE  = 
ORIGINATOR     = 

OBJECT_NAME    = ISS (ZARYA)
OBJECT_ID      = 1998-067A
CENTER_NAME    = EARTH
REF_FRAME      = TEME
TIME_SYSTEM    = UTC
MEAN_ELEMENT_THEORY = SGP/SGP4

EPOCH          = 2026-04-04T01:39:43.591392
MEAN_MOTION    = 15.48758130
ECCENTRICITY   = .00062512
INCLINATION    = 51.6326
RA_OF_ASC_NODE = 306.8840
ARG_OF_PERICENTER = 269.7954
MEAN_ANOMALY   = 90.2318

EPHEMERIS_TYPE = 0
CLASSIFICATION_TYPE = U
NORAD_CAT_ID   = 25544
ELEMENT_SET_NO = 999
REV_AT_EPOCH   = 56026
BSTAR          = .22464475E-3
MEAN_MOTION_DOT = .11847E-3
MEAN_MOTION_DDOT = 0

CCSDS_OMM_VERS = 2.0
CREATION_DATE  = 
ORIGINATOR     = 

OBJECT_NAME    = CZ-4B R/B
OBJECT_ID      = 1999-025C
CENTER_NAME    = EARTH
REF_FRAME      = TEME
TIME_SYSTEM    = UTC
MEAN_ELEMENT_THEORY = SGP/SGP4

EPOCH          = 2026-04-04T03:12:32.765184
MEAN_MOTION    = 14.18270738
ECCENTRICITY   = .00359773
INCLINATION    = 98.6573
RA_OF_ASC_NODE = 137.8064
ARG_OF_PERICENTER = 271.6847
MEAN_ANOMALY   = 151.1591

EPHEMERIS_TYPE = 0
CLASSIFICATION_TYPE = U
NORAD_CAT_ID   = 25732
ELEMENT_SET_NO = 999
REV_AT_EPOCH   = 39177
BSTAR          = .62560322E-4
MEAN_MOTION_DOT = .86E-6
MEAN_MOTION_DDOT = 0

CCSDS_OMM_VERS = 2.0
CREATION_DATE  = 
ORIGINATOR     = 

OBJECT_NAME    = OKEAN-O
OBJECT_ID      = 1999-039A
CENTER_NAME    = EARTH
REF_FRAME      = TEME
TIME_SYSTEM    = UTC
MEAN_ELEMENT_THEORY = SGP/SGP4

EPOCH          = 2026-04-04T03:13:25.787136
MEAN_MOTION    = 14.80379840
ECCENTRICITY   = .00009243
INCLINATION    = 97.9389
RA_OF_ASC_NODE = 153.7604
ARG_OF_PERICENTER = 103.2505
MEAN_ANOMALY   = 256.8810

EPHEMERIS_TYPE = 0
CLASSIFICATION_TYPE = U
NORAD_CAT_ID   = 25860
ELEMENT_SET_NO = 999
REV_AT_EPOCH   = 43815
BSTAR          = .1598292E-3
MEAN_MOTION_DOT = .1168E-4
MEAN_MOTION_DDOT = 0

CCSDS_OMM_VERS = 2.0
CREATION_DATE  = 
ORIGINATOR     = 

OBJECT_NAME    = SL-16 R/B
OBJECT_ID      = 1999-039B
CENTER_NAME    = EARTH
REF_FRAME      = TEME
TIME_SYSTEM    = UTC
MEAN_ELEMENT_THEORY = SGP/SGP4

EPOCH          = 2026-04-04T03:47:16.437696
MEAN_MOTION    = 14.81769655
ECCENTRICITY   = .001505
INCLINATION    = 97.9912
RA_OF_ASC_NODE = 153.2095
ARG_OF_PERICENTER = 169.6846
MEAN_ANOMALY   = 190.4678

EPHEMERIS_TYPE = 0
CLASSIFICATION_TYPE = U
NORAD_CAT_ID   = 25861
ELEMENT_SET_NO = 999
REV_AT_EPOCH   = 44063
BSTAR          = .13579631E-3
MEAN_MOTION_DOT = .1019E-4
MEAN_MOTION_DDOT = 0

CCSDS_OMM_VERS = 2.0
CREATION_DATE  = 
ORIGINATOR     = 

OBJECT_NAME    = DELTA 2 R/B
OBJECT_ID      = 1999-041E
CENTER_NAME    = EARTH
REF_FRAME      = TEME
TIME_SYSTEM    = UTC
MEAN_ELEMENT_THEORY = SGP/SGP4

EPOCH          = 2026-04-04T06:43:36.231744
MEAN_MOTION    = 14.11898885
ECCENTRICITY   = .05026254
INCLINATION    = 51.7610
RA_OF_ASC_NODE = 199.0514
ARG_OF_PERICENTER = 63.8946
MEAN_ANOMALY   = 301.2810

EPHEMERIS_TYPE = 0
CLASSIFICATION_TYPE = U
NORAD_CAT_ID   = 25876
ELEMENT_SET_NO = 999
REV_AT_EPOCH   = 36664
BSTAR          = .19920038E-3
MEAN_MOTION_DOT = .993E-5
MEAN_MOTION_DDOT = 0

CCSDS_OMM_VERS = 2.0
CREATION_DATE  = 
ORIGINATOR     = 

OBJECT_NAME    = HELIOS 1B
OBJECT_ID      = 1999-064A
CENTER_NAME    = EARTH
REF_FRAME      = TEME
TIME_SYSTEM    = UTC
MEAN_ELEMENT_THEORY = SGP/SGP4

EPOCH          = 2026-04-04T06:30:45.592128
MEAN_MOTION    = 14.87806043
ECCENTRICITY   = .00014987
INCLINATION    = 98.1669
RA_OF_ASC_NODE = 357.2640
ARG_OF_PERICENTER = 44.1939
MEAN_ANOMALY   = 315.9396

EPHEMERIS_TYPE = 0
CLASSIFICATION_TYPE = U
NORAD_CAT_ID   = 25977
ELEMENT_SET_NO = 999
REV_AT_EPOCH   = 68906
BSTAR          = .39373731E-3
MEAN_MOTION_DOT = .3539E-4
MEAN_MOTION_DDOT = 0

CCSDS_OMM_VERS = 2.0
CREATION_DATE  = 
ORIGINATOR     = 

OBJECT_NAME    = TERRA
OBJECT_ID      = 1999-068A
CENTER_NAME    = EARTH
REF_FRAME      = TEME
TIME_SYSTEM    = UTC
MEAN_ELEMENT_THEORY = SGP/SGP4

EPOCH          = 2026-04-04T06:16:07.915872
MEAN_MOTION    = 14.61044406
ECCENTRICITY   = .00036715
INCLINATION    = 97.9539
RA_OF_ASC_NODE = 146.7122
ARG_OF_PERICENTER = 99.1126
MEAN_ANOMALY   = 325.8657

EPHEMERIS_TYPE = 0
CLASSIFICATION_TYPE = U
NORAD_CAT_ID   = 25994
ELEMENT_SET_NO = 999
REV_AT_EPOCH   = 39881
BSTAR          = .16740889E-3
MEAN_MOTION_DOT = .777E-5
MEAN_MOTION_DDOT = 0

CCSDS_OMM_VERS = 2.0
CREATION_DATE  = 
ORIGINATOR     = 

OBJECT_NAME    = SL-16 R/B
OBJECT_ID      = 2000-006B
CENTER_NAME    = EARTH
REF_FRAME      = TEME
TIME_SYSTEM    = UTC
MEAN_ELEMENT_THEORY = SGP/SGP4

EPOCH          = 2026-04-04T05:38:23.334720
MEAN_MOTION    = 14.15831083
ECCENTRICITY   = .00152383
INCLINATION    = 71.0039
RA_OF_ASC_NODE = 44.1205
ARG_OF_PERICENTER = 149.7346
MEAN_ANOMALY   = 210.4661

EPHEMERIS_TYPE = 0
CLASSIFICATION_TYPE = U
NORAD_CAT_ID   = 26070
ELEMENT_SET_NO = 999
REV_AT_EPOCH   = 35217
BSTAR          = .82879419E-4
MEAN_MOTION_DOT = .115E-5
MEAN_MOTION_DDOT = 0

CCSDS_OMM_VERS = 2.0
CREATION_DATE  = 
ORIGINATOR     = 

OBJECT_NAME    = TITAN 4B R/B
OBJECT_ID      = 2000-047B
CENTER_NAME    = EARTH
REF_FRAME      = TEME
TIME_SYSTEM    = UTC
MEAN_ELEMENT_THEORY = SGP/SGP4

EPOCH          = 2026-04-04T04:53:30.488640
MEAN_MOTION    = 15.09807059
ECCENTRICITY   = .00403481
INCLINATION    = 67.9903
RA_OF_ASC_NODE = 328.7553
ARG_OF_PERICENTER = 5.5420
MEAN_ANOMALY   = 354.6167

EPHEMERIS_TYPE = 0
CLASSIFICATION_TYPE = U
NORAD_CAT_ID   = 26474
ELEMENT_SET_NO = 999
REV_AT_EPOCH   = 39676
BSTAR          = .36271032E-3
MEAN_MOTION_DOT = .5857E-4
MEAN_MOTION_DDOT = 0

CCSDS_OMM_VERS = 2.0
CREATION_DATE  = 
ORIGINATOR     = 

OBJECT_NAME    = ENVISAT
OBJECT_ID      = 2002-009A
CENTER_NAME    = EARTH
REF_FRAME      = TEME
TIME_SYSTEM    = UTC
MEAN_ELEMENT_THEORY = SGP/SGP4

EPOCH          = 2026-04-04T06:57:02.108736
MEAN_MOTION    = 14.39046564
ECCENTRICITY   = .00011799
INCLINATION    = 98.3771
RA_OF_ASC_NODE = 47.2842
ARG_OF_PERICENTER = 82.2846
MEAN_ANOMALY   = 85.8357

EPHEMERIS_TYPE = 0
CLASSIFICATION_TYPE = U
NORAD_CAT_ID   = 27386
ELEMENT_SET_NO = 999
REV_AT_EPOCH   = 26285
BSTAR          = .80455368E-4
MEAN_MOTION_DOT = .206E-5
MEAN_MOTION_DDOT = 0

CCSDS_OMM_VERS = 2.0
CREATION_DATE  = 
ORIGINATOR     = 

OBJECT_NAME    = IDEFIX & ARIANE 42P R/B
OBJECT_ID      = 2002-021B
CENTER_NAME    = EARTH
REF_FRAME      = TEME
TIME_SYSTEM    = UTC
MEAN_ELEMENT_THEORY = SGP/SGP4

EPOCH          = 2026-04-04T05:25:47.909280
MEAN_MOTION    = 14.31044908
ECCENTRICITY   = .00128625
INCLINATION    = 98.5899
RA_OF_ASC_NODE = 32.5319
ARG_OF_PERICENTER = 110.0594
MEAN_ANOMALY   = 250.1975

EPHEMERIS_TYPE = 0
CLASSIFICATION_TYPE = U
NORAD_CAT_ID   = 27422
ELEMENT_SET_NO = 999
REV_AT_EPOCH   = 24767
BSTAR          = .19075168E-3
MEAN_MOTION_DOT = .459E-5
MEAN_MOTION_DDOT = 0

